{"type": "FeatureCollection", "features": [ {"type": "Feature", "properties": {"norad_id": 29963, "name": "FENGYUN 1C DEB", "group": "fengyun-1c-debris", "lat": -48.7100961183471, "lon": -105.26524579387129, "alt_km": 775.1503982424956, "timestamp": "2025-12-25T22:42:17.283990+00:00", "meta": {"OBJECT_NAME": "FENGYUN 1C DEB", "OBJECT_ID": "1999-025KM", "EPOCH": "2025-12-25T09:45:34.637760", "MEAN_MOTION": 14.29502919, "ECCENTRICITY": 0.0050916, "INCLINATION": 98.9986, "RA_OF_ASC_NODE": 243.7827, "ARG_OF_PERICENTER": 265.2026, "MEAN_ANOMALY": 150.7112, "EPHEMERIS_TYPE": 0, "CLASSIFICATION_TYPE": "U", "NORAD_CAT_ID": 29963, "ELEMENT_SET_NO": 999, "REV_AT_EPOCH": 98324, "BSTAR": 0.00066324, "MEAN_MOTION_DOT": 1.671e-05, "MEAN_MOTION_DDOT": 0}, "tle": {"line1": "1 29963U 99025KM  25359.40665090  .00001671  00000+0  66324-3 0  9996", "line2": "2 29963  98.9986 243.7827 0050916 265.2026 150.7112 14.29502919983242"}}, "geometry": {"type": "Point", "coordinates": [-105.26524579387129, -48.7100961183471]}}, {"type": "Feature", "properties": {"norad_id": 29964, "name": "FENGYUN 1C DEB", "group": "fengyun-1c-debris", "lat": 14.845769823672406, "lon": -160.83872540245173, "alt_km": 960.6325319452817, "timestamp": "2025-12-25T22:42:17.284000+00:00", "meta": {"OBJECT_NAME": "FENGYUN 1C DEB", "OBJECT_ID": "1999-025KN", "EPOCH": "2025-12-25T12:21:39.258144", "MEAN_MOTION": 14.02772522, "ECCENTRICITY": 0.0130925, "INCLINATION": 98.3701, "RA_OF_ASC_NODE": 201.0014, "ARG_OF_PERICENTER": 233.1938, "MEAN_ANOMALY": 125.716, "EPHEMERIS_TYPE": 0, "CLASSIFICATION_TYPE": "U", "NORAD_CAT_ID": 29964, "ELEMENT_SET_NO": 999, "REV_AT_EPOCH": 96496, "BSTAR": 0.00074036, "MEAN_MOTION_DOT": 1.195e-05, "MEAN_MOTION_DDOT": 0}, "tle": {"line1": "1 29964U 99025KN  25359.51503771  .00001195  00000+0  74036-3 0  9996", "line2": "2 29964  98.3701 201.0014 0130925 233.1938 125.7160 14.02772522964965"}}, "geometry": {"type": "Point", "coordinates": [-160.83872540245173, 14.845769823672406]}}, {"type": "Feature", "properties": {"norad_id": 29965, "name": "FENGYUN 1C DEB", "group": "fengyun-1c-debris", "lat": 24.40422127597762, "lon": 178.32661812828434, "alt_km": 964.860565624228, "timestamp": "2025-12-25T22:42:17.284011+00:00", "meta": {"OBJECT_NAME": "FENGYUN 1C DEB", "OBJECT_ID": "1999-025KP", "EPOCH": "2025-12-25T19:07:01.227936", "MEAN_MOTION": 13.95781724, "ECCENTRICITY": 0.0145789, "INCLINATION": 98.9632, "RA_OF_ASC_NODE": 354.0749, "ARG_OF_PERICENTER": 32.3403, "MEAN_ANOMALY": 90.6713, "EPHEMERIS_TYPE": 0, "CLASSIFICATION_TYPE": "U", "NORAD_CAT_ID": 29965, "ELEMENT_SET_NO": 999, "REV_AT_EPOCH": 96458, "BSTAR": 0.00030006, "MEAN_MOTION_DOT": 4.05e-06, "MEAN_MOTION_DDOT": 0}, "tle": {"line1": "1 29965U 99025KP  25359.79654199  .00000405  00000+0  30006-3 0  9990", "line2": "2 29965  98.9632 354.0749 0145789  32.3403  90.6713 13.95781724964586"}}, "geometry": {"type": "Point", "coordinates": [178.32661812828434, 24.40422127597762]}}, {"type": "Feature", "properties": {"norad_id": 29966, "name": "FENGYUN 1C DEB", "group": "fengyun-1c-debris", "lat": -17.207537858745976, "lon": -149.03687454291213, "alt_km": 787.5574724454827, "timestamp": "2025-12-25T22:42:17.284021+00:00", "meta": {"OBJECT_NAME": "FENGYUN 1C DEB", "OBJECT_ID": "1999-025KQ", "EPOCH": "2025-12-25T12:40:50.448288", "MEAN_MOTION": 14.25775355, "ECCENTRICITY": 0.0039223, "INCLINATION": 99.4909, "RA_OF_ASC_NODE": 207.5416, "ARG_OF_PERICENTER": 309.0119, "MEAN_ANOMALY": 50.7568, "EPHEMERIS_TYPE": 0, "CLASSIFICATION_TYPE": "U", "NORAD_CAT_ID": 29966, "ELEMENT_SET_NO": 999, "REV_AT_EPOCH": 98225, "BSTAR": 0.00037955, "MEAN_MOTION_DOT": 8.58e-06, "MEAN_MOTION_DDOT": 0}, "tle": {"line1": "1 29966U 99025KQ  25359.52836167  .00000858  00000+0  37955-3 0  9991", "line2": "2 29966  99.4909 207.5416 0039223 309.0119  50.7568 14.25775355982252"}}, "geometry": {"type": "Point", "coordinates": [-149.03687454291213, -17.207537858745976]}}, {"type": "Feature", "properties": {"norad_id": 29967, "name": "FENGYUN 1C DEB", "group": "fengyun-1c-debris", "lat": 54.449067861648125, "lon": 64.04119754566884, "alt_km": 860.0519291990486, "timestamp": "2025-12-25T22:42:17.284031+00:00", "meta": {"OBJECT_NAME": "FENGYUN 1C DEB", "OBJECT_ID": "1999-025KR", "EPOCH": "2025-12-25T04:01:46.363008", "MEAN_MOTION": 14.23674669, "ECCENTRICITY": 0.0076868, "INCLINATION": 98.8643, "RA_OF_ASC_NODE": 75.8707, "ARG_OF_PERICENTER": 256.4569, "MEAN_ANOMALY": 132.8645, "EPHEMERIS_TYPE": 0, "CLASSIFICATION_TYPE": "U", "NORAD_CAT_ID": 29967, "ELEMENT_SET_NO": 999, "REV_AT_EPOCH": 97399, "BSTAR": 0.0015964, "MEAN_MOTION_DOT": 3.711e-05, "MEAN_MOTION_DDOT": 0}, "tle": {"line1": "1 29967U 99025KR  25359.16789772  .00003711  00000+0  15964-2 0  9997", "line2": "2 29967  98.8643  75.8707 0076868 256.4569 132.8645 14.23674669973993"}}, "geometry": {"type": "Point", "coordinates": [64.04119754566884, 54.449067861648125]}}, {"type": "Feature", "properties": {"norad_id": 29968, "name": "FENGYUN 1C DEB", "group": "fengyun-1c-debris", "lat": -77.55546799844232, "lon": 33.974522100990434, "alt_km": 825.1862861351237, "timestamp": "2025-12-25T22:42:17.284041+00:00", "meta": {"OBJECT_NAME": "FENGYUN 1C DEB", "OBJECT_ID": "1999-025KS", "EPOCH": "2025-12-25T13:24:20.974176", "MEAN_MOTION": 14.07266714, "ECCENTRICITY": 0.008948, "INCLINATION": 98.8056, "RA_OF_ASC_NODE": 348.9769, "ARG_OF_PERICENTER": 318.6026, "MEAN_ANOMALY": 159.0467, "EPHEMERIS_TYPE": 0, "CLASSIFICATION_TYPE": "U", "NORAD_CAT_ID": 29968, "ELEMENT_SET_NO": 999, "REV_AT_EPOCH": 97229, "BSTAR": 0.00025081, "MEAN_MOTION_DOT": 3.93e-06, "MEAN_MOTION_DDOT": 0}, "tle": {"line1": "1 29968U 99025KS  25359.55857609  .00000393  00000+0  25081-3 0  9991", "line2": "2 29968  98.8056 348.9769 0089480 318.6026 159.0467 14.07266714972292"}}, "geometry": {"type": "Point", "coordinates": [33.974522100990434, -77.55546799844232]}}, {"type": "Feature", "properties": {"norad_id": 29969, "name": "FENGYUN 1C DEB", "group": "fengyun-1c-debris", "lat": 46.849348176327354, "lon": -86.09796058086751, "alt_km": 791.8970921567743, "timestamp": "2025-12-25T22:42:17.284051+00:00", "meta": {"OBJECT_NAME": "FENGYUN 1C DEB", "OBJECT_ID": "1999-025KT", "EPOCH": "2025-12-25T17:46:06.226176", "MEAN_MOTION": 14.33332457, "ECCENTRICITY": 0.0040827, "INCLINATION": 98.7701, "RA_OF_ASC_NODE": 84.2154, "ARG_OF_PERICENTER": 10.8436, "MEAN_ANOMALY": 140.3848, "EPHEMERIS_TYPE": 0, "CLASSIFICATION_TYPE": "U", "NORAD_CAT_ID": 29969, "ELEMENT_SET_NO": 999, "REV_AT_EPOCH": 97848, "BSTAR": 0.0017432, "MEAN_MOTION_DOT": 4.805e-05, "MEAN_MOTION_DDOT": 0}, "tle": {"line1": "1 29969U 99025KT  25359.74034984  .00004805  00000+0  17432-2 0  9998", "line2": "2 29969  98.7701  84.2154 0040827  10.8436 140.3848 14.33332457978485"}}, "geometry": {"type": "Point", "coordinates": [-86.09796058086751, 46.849348176327354]}}, {"type": "Feature", "properties": {"norad_id": 29970, "name": "FENGYUN 1C DEB", "group": "fengyun-1c-debris", "lat": 54.311386134099344, "lon": 121.191291966951, "alt_km": 680.2720830112248, "timestamp": "2025-12-25T22:42:17.284061+00:00", "meta": {"OBJECT_NAME": "FENGYUN 1C DEB", "OBJECT_ID": "1999-025KU", "EPOCH": "2025-12-25T17:19:24.440160", "MEAN_MOTION": 14.43988221, "ECCENTRICITY": 0.0091442, "INCLINATION": 98.8098, "RA_OF_ASC_NODE": 288.4901, "ARG_OF_PERICENTER": 148.6785, "MEAN_ANOMALY": 251.475, "EPHEMERIS_TYPE": 0, "CLASSIFICATION_TYPE": "U", "NORAD_CAT_ID": 29970, "ELEMENT_SET_NO": 999, "REV_AT_EPOCH": 99308, "BSTAR": 0.00040183, "MEAN_MOTION_DOT": 1.395e-05, "MEAN_MOTION_DDOT": 0}, "tle": {"line1": "1 29970U 99025KU  25359.72181065  .00001395  00000+0  40183-3 0  9992", "line2": "2 29970  98.8098 288.4901 0091442 148.6785 251.4750 14.43988221993087"}}, "geometry": {"type": "Point", "coordinates": [121.191291966951, 54.311386134099344]}}, {"type": "Feature", "properties": {"norad_id": 29971, "name": "FENGYUN 1C DEB", "group": "fengyun-1c-debris", "lat": -39.670614785557504, "lon": 46.707904135200586, "alt_km": 855.0310477199364, "timestamp": "2025-12-25T22:42:17.284071+00:00", "meta": {"OBJECT_NAME": "FENGYUN 1C DEB", "OBJECT_ID": "1999-025KV", "EPOCH": "2025-12-25T16:41:18.004128", "MEAN_MOTION": 14.18220443, "ECCENTRICITY": 0.0024156, "INCLINATION": 98.6821, "RA_OF_ASC_NODE": 39.1824, "ARG_OF_PERICENTER": 131.7094, "MEAN_ANOMALY": 349.0234, "EPHEMERIS_TYPE": 0, "CLASSIFICATION_TYPE": "U", "NORAD_CAT_ID": 29971, "ELEMENT_SET_NO": 999, "REV_AT_EPOCH": 97523, "BSTAR": 0.00078506, "MEAN_MOTION_DOT": 1.576e-05, "MEAN_MOTION_DDOT": 0}, "tle": {"line1": "1 29971U 99025KV  25359.69534727  .00001576  00000+0  78506-3 0  9997", "line2": "2 29971  98.6821  39.1824 0024156 131.7094 349.0234 14.18220443975234"}}, "geometry": {"type": "Point", "coordinates": [46.707904135200586, -39.670614785557504]}}, {"type": "Feature", "properties": {"norad_id": 29972, "name": "FENGYUN 1C DEB", "group": "fengyun-1c-debris", "lat": -70.47804394555283, "lon": 166.89331360658886, "alt_km": 670.5436134269739, "timestamp": "2025-12-25T22:42:17.284081+00:00", "meta": {"OBJECT_NAME": "FENGYUN 1C DEB", "OBJECT_ID": "1999-025KW", "EPOCH": "2025-12-25T00:30:34.266816", "MEAN_MOTION": 14.66505718, "ECCENTRICITY": 0.00640704, "INCLINATION": 98.9206, "RA_OF_ASC_NODE": 12.1846, "ARG_OF_PERICENTER": 334.3615, "MEAN_ANOMALY": 79.2913, "EPHEMERIS_TYPE": 0, "CLASSIFICATION_TYPE": "U", "NORAD_CAT_ID": 29972, "ELEMENT_SET_NO": 999, "REV_AT_EPOCH": 99666, "BSTAR": 0.001278772, "MEAN_MOTION_DOT": 7.252e-05, "MEAN_MOTION_DDOT": 0}, "tle": {"line1": "1 29972U 99025KW  25359.02122994  .00007252  00000+0  12788-2 0  9990", "line2": "2 29972  98.9206  12.1846 0064070 334.3615  79.2913 14.66505718996669"}}, "geometry": {"type": "Point", "coordinates": [166.89331360658886, -70.47804394555283]}}]}